start=new Date('2021-12-27T00:00:00.000Z').valueOf();
sats=[{"RCS_SIZE":"LARGE","INCLINATION":"53.0527","MEAN_MOTION_DDOT":"0.0000000000000","SITE":"AFETR","APOAPSIS":"549.090","MEAN_ANOMALY":"284.4502","COUNTRY_CODE":"US","TIME_SYSTEM":"UTC","TLE_LINE1":"1 48101U 21027K   21360.89665530  .00001748  00000-0  13627-3 0  9992","MEAN_ELEMENT_THEORY":"SGP4","FILE":"3251846","CLASSIFICATION_TYPE":"U","EPOCH":"2021-12-26T21:31:11.017920","EPHEMERIS_TYPE":"0","ELEMENT_SET_NO":"999","REV_AT_EPOCH":"4138","DECAY_DATE":null,"ARG_OF_PERICENTER":"75.6787","ECCENTRICITY":"0.00027110","OBJECT_ID":"2021-027K","LAUNCH_DATE":"2021-04-07","PERIOD":"95.592","SEMIMAJOR_AXIS":"6925.348","OBJECT_TYPE":"PAYLOAD","MEAN_MOTION_DOT":"0.00001748","TLE_LINE2":"2 48101  53.0527 207.0898 0002711  75.6787 284.4502 15.06400174 41382","NORAD_CAT_ID":"48101","GP_ID":"192524159","RA_OF_ASC_NODE":"207.0898","BSTAR":"0.00013627000000","CENTER_NAME":"EARTH","REF_FRAME":"TEME","MEAN_MOTION":"15.06400174","OBJECT_NAME":"STARLINK-2436","PERIAPSIS":"545.336"},{"OBJECT_NAME":"STARLINK-2437","MEAN_MOTION":"15.06391869","PERIAPSIS":"545.603","BSTAR":"-0.00000958960000","CENTER_NAME":"EARTH","REF_FRAME":"TEME","NORAD_CAT_ID":"48102","GP_ID":"192524910","RA_OF_ASC_NODE":"196.8836","SEMIMAJOR_AXIS":"6925.373","OBJECT_TYPE":"PAYLOAD","MEAN_MOTION_DOT":"-0.00000425","TLE_LINE2":"2 48102  53.0521 196.8836 0002361  80.4668 279.6588 15.06391869 41523","LAUNCH_DATE":"2021-04-07","PERIOD":"95.593","DECAY_DATE":null,"ARG_OF_PERICENTER":"80.4668","ECCENTRICITY":"0.00023610","OBJECT_ID":"2021-027L","COUNTRY_CODE":"US","TIME_SYSTEM":"UTC","FILE":"3251846","TLE_LINE1":"1 48102U 21027L   21360.93908997 -.00000425  00000-0 -95896-5 0  9998","MEAN_ELEMENT_THEORY":"SGP4","CLASSIFICATION_TYPE":"U","EPHEMERIS_TYPE":"0","EPOCH":"2021-12-26T22:32:17.373408","ELEMENT_SET_NO":"999","REV_AT_EPOCH":"4152","INCLINATION":"53.0521","RCS_SIZE":"LARGE","MEAN_MOTION_DDOT":"0.0000000000000","SITE":"AFETR","APOAPSIS":"548.874","MEAN_ANOMALY":"279.6588"},{"MEAN_ANOMALY":"280.5085","SITE":"AFETR","APOAPSIS":"549.135","INCLINATION":"53.0523","RCS_SIZE":"MEDIUM","MEAN_MOTION_DDOT":"0.0000000000000","REV_AT_EPOCH":"4151","EPHEMERIS_TYPE":"0","EPOCH":"2021-12-26T21:07:22.171008","ELEMENT_SET_NO":"999","TIME_SYSTEM":"UTC","FILE":"3251846","TLE_LINE1":"1 48103U 21027M   21360.88011772  .00007945  00000-0  55169-3 0  9998","CLASSIFICATION_TYPE":"U","MEAN_ELEMENT_THEORY":"SGP4","COUNTRY_CODE":"US","ECCENTRICITY":"0.00027630","OBJECT_ID":"2021-027M","DECAY_DATE":null,"ARG_OF_PERICENTER":"79.6215","PERIOD":"95.592","LAUNCH_DATE":"2021-04-07","TLE_LINE2":"2 48103  53.0523 197.1479 0002763  79.6215 280.5085 15.06397421 41519","OBJECT_TYPE":"PAYLOAD","MEAN_MOTION_DOT":"0.00007945","SEMIMAJOR_AXIS":"6925.356","RA_OF_ASC_NODE":"197.1479","GP_ID":"192525161","NORAD_CAT_ID":"48103","REF_FRAME":"TEME","CENTER_NAME":"EARTH","BSTAR":"0.00055169000000","PERIAPSIS":"545.308","OBJECT_NAME":"STARLINK-2438","MEAN_MOTION":"15.06397421"},{"BSTAR":"0.00000221110000","CENTER_NAME":"EARTH","REF_FRAME":"TEME","PERIAPSIS":"545.451","MEAN_MOTION":"15.06393887","OBJECT_NAME":"STARLINK-2439","SEMIMAJOR_AXIS":"6925.367","TLE_LINE2":"2 48104  53.0546 202.1111 0002572  78.9862 281.1416 15.06393887 41453","MEAN_MOTION_DOT":"-0.00000249","OBJECT_TYPE":"PAYLOAD","NORAD_CAT_ID":"48104","RA_OF_ASC_NODE":"202.1111","GP_ID":"192525910","ARG_OF_PERICENTER":"78.9862","DECAY_DATE":null,"OBJECT_ID":"2021-027N","ECCENTRICITY":"0.00025720","LAUNCH_DATE":"2021-04-07","PERIOD":"95.593","MEAN_MOTION_DDOT":"0.0000000000000","RCS_SIZE":"LARGE","INCLINATION":"53.0546","MEAN_ANOMALY":"281.1416","APOAPSIS":"549.013","SITE":"AFETR","MEAN_ELEMENT_THEORY":"SGP4","TLE_LINE1":"1 48104U 21027N   21360.89254696 -.00000249  00000-0  22111-5 0  9998","FILE":"3251846","CLASSIFICATION_TYPE":"U","TIME_SYSTEM":"UTC","COUNTRY_CODE":"US","REV_AT_EPOCH":"4145","ELEMENT_SET_NO":"999","EPOCH":"2021-12-26T21:25:16.057344","EPHEMERIS_TYPE":"0"},{"PERIAPSIS":"545.623","OBJECT_NAME":"STARLINK-2440","MEAN_MOTION":"15.06394393","BSTAR":"-0.00004479600000","CENTER_NAME":"EARTH","REF_FRAME":"TEME","NORAD_CAT_ID":"48105","RA_OF_ASC_NODE":"147.2049","GP_ID":"192524660","SEMIMAJOR_AXIS":"6925.366","TLE_LINE2":"2 48105  53.0561 147.2049 0002322  86.2521 273.8733 15.06394393 42215","OBJECT_TYPE":"PAYLOAD","MEAN_MOTION_DOT":"-0.00000949","LAUNCH_DATE":"2021-04-07","PERIOD":"95.592","DECAY_DATE":null,"ARG_OF_PERICENTER":"86.2521","ECCENTRICITY":"0.00023220","OBJECT_ID":"2021-027P","TIME_SYSTEM":"UTC","TLE_LINE1":"1 48105U 21027P   21360.86627448 -.00000949  00000-0 -44796-4 0  9995","FILE":"3251846","MEAN_ELEMENT_THEORY":"SGP4","CLASSIFICATION_TYPE":"U","COUNTRY_CODE":"US","REV_AT_EPOCH":"4221","EPHEMERIS_TYPE":"0","EPOCH":"2021-12-26T20:47:26.115072","ELEMENT_SET_NO":"999","INCLINATION":"53.0561","RCS_SIZE":"LARGE","MEAN_MOTION_DDOT":"0.0000000000000","MEAN_ANOMALY":"273.8733","SITE":"AFETR","APOAPSIS":"548.839"},{"APOAPSIS":"549.067","SITE":"AFETR","MEAN_ANOMALY":"279.2163","MEAN_MOTION_DDOT":"0.0000000000000","RCS_SIZE":"LARGE","INCLINATION":"53.0540","ELEMENT_SET_NO":"999","EPHEMERIS_TYPE":"0","EPOCH":"2021-12-26T18:47:59.754336","REV_AT_EPOCH":"4150","COUNTRY_CODE":"US","TLE_LINE1":"1 48106U 21027Q   21360.78333049 -.00000436  00000-0 -10323-4 0  9998","FILE":"3251846","MEAN_ELEMENT_THEORY":"SGP4","CLASSIFICATION_TYPE":"U","TIME_SYSTEM":"UTC","ECCENTRICITY":"0.00025950","OBJECT_ID":"2021-027Q","ARG_OF_PERICENTER":"80.9119","DECAY_DATE":null,"PERIOD":"95.593","LAUNCH_DATE":"2021-04-07","MEAN_MOTION_DOT":"-0.00000436","OBJECT_TYPE":"PAYLOAD","TLE_LINE2":"2 48106  53.0540 197.5840 0002595  80.9119 279.2163 15.06381761 41509","SEMIMAJOR_AXIS":"6925.404","GP_ID":"192524410","RA_OF_ASC_NODE":"197.5840","NORAD_CAT_ID":"48106","REF_FRAME":"TEME","BSTAR":"-0.00001032300000","CENTER_NAME":"EARTH","MEAN_MOTION":"15.06381761","OBJECT_NAME":"STARLINK-2442","PERIAPSIS":"545.472"},{"PERIAPSIS":"545.616","OBJECT_NAME":"STARLINK-2443","MEAN_MOTION":"15.06392001","REF_FRAME":"TEME","BSTAR":"-0.00004919000000","CENTER_NAME":"EARTH","RA_OF_ASC_NODE":"196.9168","GP_ID":"192525662","NORAD_CAT_ID":"48107","TLE_LINE2":"2 48107  53.0532 196.9168 0002342  85.1157 275.0100 15.06392001 41522","OBJECT_TYPE":"PAYLOAD","MEAN_MOTION_DOT":"-0.00001014","SEMIMAJOR_AXIS":"6925.373","PERIOD":"95.593","LAUNCH_DATE":"2021-04-07","ECCENTRICITY":"0.00023420","OBJECT_ID":"2021-027R","DECAY_DATE":null,"ARG_OF_PERICENTER":"85.1157","REV_AT_EPOCH":"4152","EPHEMERIS_TYPE":"0","EPOCH":"2021-12-26T22:21:39.901248","ELEMENT_SET_NO":"999","TIME_SYSTEM":"UTC","TLE_LINE1":"1 48107U 21027R   21360.93171182 -.00001014  00000-0 -49190-4 0  9991","MEAN_ELEMENT_THEORY":"SGP4","FILE":"3251846","CLASSIFICATION_TYPE":"U","COUNTRY_CODE":"US","MEAN_ANOMALY":"275.0100","SITE":"AFETR","APOAPSIS":"548.860","INCLINATION":"53.0532","RCS_SIZE":"LARGE","MEAN_MOTION_DDOT":"0.0000000000000"},{"SEMIMAJOR_AXIS":"6925.326","TLE_LINE2":"2 48108  53.0527 207.0521 0002396  76.7365 283.3891 15.06407212 41373","OBJECT_TYPE":"PAYLOAD","MEAN_MOTION_DOT":"0.00003142","NORAD_CAT_ID":"48108","RA_OF_ASC_NODE":"207.0521","GP_ID":"192525410","BSTAR":"0.00022972000000","CENTER_NAME":"EARTH","REF_FRAME":"TEME","PERIAPSIS":"545.532","OBJECT_NAME":"STARLINK-2444","MEAN_MOTION":"15.06407212","RCS_SIZE":"LARGE","INCLINATION":"53.0527","MEAN_MOTION_DDOT":"0.0000000000000","MEAN_ANOMALY":"283.3891","SITE":"AFETR","APOAPSIS":"548.851","TIME_SYSTEM":"UTC","TLE_LINE1":"1 48108U 21027S   21360.90498745  .00003142  00000-0  22972-3 0  9996","CLASSIFICATION_TYPE":"U","FILE":"3251846","MEAN_ELEMENT_THEORY":"SGP4","COUNTRY_CODE":"US","REV_AT_EPOCH":"4137","EPOCH":"2021-12-26T21:43:10.915680","EPHEMERIS_TYPE":"0","ELEMENT_SET_NO":"999","DECAY_DATE":null,"ARG_OF_PERICENTER":"76.7365","ECCENTRICITY":"0.00023960","OBJECT_ID":"2021-027S","LAUNCH_DATE":"2021-04-07","PERIOD":"95.592"},{"NORAD_CAT_ID":"48109","GP_ID":"192524160","RA_OF_ASC_NODE":"216.9777","SEMIMAJOR_AXIS":"6925.318","OBJECT_TYPE":"PAYLOAD","MEAN_MOTION_DOT":"0.00001720","TLE_LINE2":"2 48109  53.0540 216.9777 0002295  75.5016 284.6227 15.06409957 41240","MEAN_MOTION":"15.06409957","OBJECT_NAME":"STARLINK-2445","PERIAPSIS":"545.594","BSTAR":"0.00013432000000","CENTER_NAME":"EARTH","REF_FRAME":"TEME","COUNTRY_CODE":"US","TIME_SYSTEM":"UTC","TLE_LINE1":"1 48109U 21027T   21360.91880273  .00001720  00000-0  13432-3 0  9990","FILE":"3251846","CLASSIFICATION_TYPE":"U","MEAN_ELEMENT_THEORY":"SGP4","EPOCH":"2021-12-26T22:03:04.555872","EPHEMERIS_TYPE":"0","ELEMENT_SET_NO":"999","REV_AT_EPOCH":"4124","INCLINATION":"53.0540","RCS_SIZE":"LARGE","MEAN_MOTION_DDOT":"0.0000000000000","SITE":"AFETR","APOAPSIS":"548.772","MEAN_ANOMALY":"284.6227","LAUNCH_DATE":"2021-04-07","PERIOD":"95.592","DECAY_DATE":null,"ARG_OF_PERICENTER":"75.5016","OBJECT_ID":"2021-027T","ECCENTRICITY":"0.00022950"},{"TLE_LINE1":"1 48110U 21027U   21360.89391843  .00002164  00000-0  16416-3 0  9997","MEAN_ELEMENT_THEORY":"SGP4","FILE":"3251846","CLASSIFICATION_TYPE":"U","TIME_SYSTEM":"UTC","COUNTRY_CODE":"US","REV_AT_EPOCH":"4138","ELEMENT_SET_NO":"999","EPHEMERIS_TYPE":"0","EPOCH":"2021-12-26T21:27:14.552352","MEAN_MOTION_DDOT":"0.0000000000000","INCLINATION":"53.0535","RCS_SIZE":"LARGE","MEAN_ANOMALY":"281.9408","APOAPSIS":"549.051","SITE":"AFETR","LAUNCH_DATE":"2021-04-07","PERIOD":"95.592","ARG_OF_PERICENTER":"78.1880","DECAY_DATE":null,"ECCENTRICITY":"0.00026700","OBJECT_ID":"2021-027U","NORAD_CAT_ID":"48110","RA_OF_ASC_NODE":"207.0907","GP_ID":"192524911","SEMIMAJOR_AXIS":"6925.337","TLE_LINE2":"2 48110  53.0535 207.0907 0002670  78.1880 281.9408 15.06403853 41382","MEAN_MOTION_DOT":"0.00002164","OBJECT_TYPE":"PAYLOAD","PERIAPSIS":"545.353","MEAN_MOTION":"15.06403853","OBJECT_NAME":"STARLINK-2447","BSTAR":"0.00016416000000","CENTER_NAME":"EARTH","REF_FRAME":"TEME"}];
